[{"OBJECT_NAME":"YAOGAN-28","OBJECT_ID":"2015-064A","EPOCH":"2026-03-09T23:07:10.370208","MEAN_MOTION":15.26008,"ECCENTRICITY":0.00111911,"INCLINATION":97.2901,"RA_OF_ASC_NODE":209.4389,"ARG_OF_PERICENTER":175.4532,"MEAN_ANOMALY":184.6811,"EPHEMERIS_TYPE":0,"CLASSIFICATION_TYPE":"U","NORAD_CAT_ID":41026,"ELEMENT_SET_NO":999,"REV_AT_EPOCH":57554,"BSTAR":0.00039691695,"MEAN_MOTION_DOT":0.00010159,"MEAN_MOTION_DDOT":0},{"OBJECT_NAME":"STARLINK-31001","OBJECT_ID":"2023-191V","EPOCH":"2026-03-09T02:33:56.668896","MEAN_MOTION":15.26736187,"ECCENTRICITY":0.00016176,"INCLINATION":43.0014,"RA_OF_ASC_NODE":106.5046,"ARG_OF_PERICENTER":286.3592,"MEAN_ANOMALY":73.7082,"EPHEMERIS_TYPE":0,"CLASSIFICATION_TYPE":"U","NORAD_CAT_ID":58527,"ELEMENT_SET_NO":999,"REV_AT_EPOCH":12538,"BSTAR":0.00027286212,"MEAN_MOTION_DOT":7.065e-5,"MEAN_MOTION_DDOT":0}]
